ONEWEB-0371             
1 49297U 21090U   25251.60628840  .00000039  00000+0  65954-4 0  9996
2 49297  87.9281   0.9543 0001701 101.0796 259.0528 13.19725549189311
ONEWEB-0372             
1 49298U 21090V   25251.49759916  .00001610  00000+0  39275-2 0  9994
2 49298  87.9280 330.6002 0002000 101.6866 258.4492 13.20763618192656
ONEWEB-0373             
1 49299U 21090W   25251.60030985  .00000097  00000+0  20642-3 0  9993
2 49299  87.9284 330.5931 0002014  99.7870 260.3491 13.20771522193855
ONEWEB-0374             
1 49300U 21090X   25251.55904302  .00000012  00000+0 -27163-5 0  9998
2 49300  87.9087 345.7667 0002230  87.4590 272.6795 13.14503195190566
ONEWEB-0375             
1 49301U 21090Y   25251.58768027  .00000039  00000+0  62850-4 0  9993
2 49301  87.9287 330.5750 0002499  95.3717 264.7701 13.20770588193358
ONEWEB-0376             
1 49302U 21090Z   25251.60470666 -.00000039  00000+0 -12867-3 0  9990
2 49302  87.9285   0.9364 0001540  96.9009 263.2299 13.19727871189315
ONEWEB-0377             
1 49303U 21090AA  25251.49788000  .00000063  00000+0  12360-3 0  9995
2 49303  87.9290 330.5873 0002082 104.7952 255.3412 13.20772024193334
ONEWEB-0378             
1 49304U 21090AB  25251.59568061 -.00000077  00000+0 -22242-3 0  9997
2 49304  87.9298 330.5804 0001998  96.5169 263.6191 13.20774330192618
